[{"OBJECT_NAME":"CINEMA","OBJECT_ID":"2012-048G","EPOCH":"2026-03-09T23:21:38.910528","MEAN_MOTION":15.41758997,"ECCENTRICITY":0.00644529,"INCLINATION":64.645,"RA_OF_ASC_NODE":61.8658,"ARG_OF_PERICENTER":204.5071,"MEAN_ANOMALY":155.2999,"EPHEMERIS_TYPE":0,"CLASSIFICATION_TYPE":"U","NORAD_CAT_ID":38764,"ELEMENT_SET_NO":999,"REV_AT_EPOCH":10191,"BSTAR":0.00076174658,"MEAN_MOTION_DOT":0.0003483,"MEAN_MOTION_DDOT":0},{"OBJECT_NAME":"STARLINK-34067","OBJECT_ID":"2025-110V","EPOCH":"2026-03-09T06:51:10.964448","MEAN_MOTION":15.30210376,"ECCENTRICITY":0.0001093,"INCLINATION":53.1615,"RA_OF_ASC_NODE":28.4207,"ARG_OF_PERICENTER":92.617,"MEAN_ANOMALY":267.4956,"EPHEMERIS_TYPE":0,"CLASSIFICATION_TYPE":"U","NORAD_CAT_ID":64115,"ELEMENT_SET_NO":999,"REV_AT_EPOCH":4582,"BSTAR":0.00070253357,"MEAN_MOTION_DOT":0.00020512,"MEAN_MOTION_DDOT":0}]
